{"type": "FeatureCollection", "features": [ {"type": "Feature", "properties": {"norad_id": 31293, "name": "FENGYUN 1C DEB", "group": "fengyun-1c-debris", "lat": -70.84095131686418, "lon": 16.350571879079236, "alt_km": 719.7354725482674, "timestamp": "2025-12-09T05:43:21.007606+00:00", "meta": {"OBJECT_NAME": "FENGYUN 1C DEB", "OBJECT_ID": "1999-025BPB", "EPOCH": "2025-12-08T18:18:38.124000", "MEAN_MOTION": 14.30809742, "ECCENTRICITY": 0.012536, "INCLINATION": 98.4229, "RA_OF_ASC_NODE": 350.646, "ARG_OF_PERICENTER": 256.7589, "MEAN_ANOMALY": 101.9586, "EPHEMERIS_TYPE": 0, "CLASSIFICATION_TYPE": "U", "NORAD_CAT_ID": 31293, "ELEMENT_SET_NO": 999, "REV_AT_EPOCH": 65187, "BSTAR": 0.00015578, "MEAN_MOTION_DOT": 4e-06, "MEAN_MOTION_DDOT": 0}, "tle": {"line1": "1 31293U 99025BPB 25342.76294125  .00000400  00000+0  15578-3 0  9997", "line2": "2 31293  98.4229 350.6460 0125360 256.7589 101.9586 14.30809742651872"}}, "geometry": {"type": "Point", "coordinates": [16.350571879079236, -70.84095131686418]}}, {"type": "Feature", "properties": {"norad_id": 31294, "name": "FENGYUN 1C DEB", "group": "fengyun-1c-debris", "lat": -4.87092749444867, "lon": 158.2632407447597, "alt_km": 914.8686678250378, "timestamp": "2025-12-09T05:43:21.007616+00:00", "meta": {"OBJECT_NAME": "FENGYUN 1C DEB", "OBJECT_ID": "1999-025BPC", "EPOCH": "2025-12-08T10:11:10.804704", "MEAN_MOTION": 14.1529869, "ECCENTRICITY": 0.00998923, "INCLINATION": 98.5432, "RA_OF_ASC_NODE": 338.2173, "ARG_OF_PERICENTER": 353.5109, "MEAN_ANOMALY": 6.4765, "EPHEMERIS_TYPE": 0, "CLASSIFICATION_TYPE": "U", "NORAD_CAT_ID": 31294, "ELEMENT_SET_NO": 999, "REV_AT_EPOCH": 96792, "BSTAR": 0.00089943143, "MEAN_MOTION_DOT": 1.795e-05, "MEAN_MOTION_DDOT": 0}, "tle": {"line1": "1 31294U 99025BPC 25342.42443061  .00001795  00000+0  89943-3 0  9991", "line2": "2 31294  98.5432 338.2173 0099892 353.5109   6.4765 14.15298690967928"}}, "geometry": {"type": "Point", "coordinates": [158.2632407447597, -4.87092749444867]}}, {"type": "Feature", "properties": {"norad_id": 31295, "name": "FENGYUN 1C DEB", "group": "fengyun-1c-debris", "lat": 5.019950822574081, "lon": 167.76922764247678, "alt_km": 920.1064526063692, "timestamp": "2025-12-09T05:43:21.007627+00:00", "meta": {"OBJECT_NAME": "FENGYUN 1C DEB", "OBJECT_ID": "1999-025BPD", "EPOCH": "2025-12-08T19:23:00.210912", "MEAN_MOTION": 13.96830093, "ECCENTRICITY": 0.0076652, "INCLINATION": 98.3171, "RA_OF_ASC_NODE": 168.1157, "ARG_OF_PERICENTER": 262.4017, "MEAN_ANOMALY": 96.8436, "EPHEMERIS_TYPE": 0, "CLASSIFICATION_TYPE": "U", "NORAD_CAT_ID": 31295, "ELEMENT_SET_NO": 999, "REV_AT_EPOCH": 95448, "BSTAR": 0.00039227, "MEAN_MOTION_DOT": 5.2e-06, "MEAN_MOTION_DDOT": 0}, "tle": {"line1": "1 31295U 99025BPD 25342.80764133  .00000520  00000+0  39227-3 0  9995", "line2": "2 31295  98.3171 168.1157 0076652 262.4017  96.8436 13.96830093954486"}}, "geometry": {"type": "Point", "coordinates": [167.76922764247678, 5.019950822574081]}}, {"type": "Feature", "properties": {"norad_id": 31296, "name": "FENGYUN 1C DEB", "group": "fengyun-1c-debris", "lat": -48.98357259226708, "lon": -91.67984866771702, "alt_km": 662.1675403420486, "timestamp": "2025-12-09T05:43:21.007637+00:00", "meta": {"OBJECT_NAME": "FENGYUN 1C DEB", "OBJECT_ID": "1999-025BPE", "EPOCH": "2025-12-08T16:53:23.798688", "MEAN_MOTION": 14.71104773, "ECCENTRICITY": 0.0019812, "INCLINATION": 99.066, "RA_OF_ASC_NODE": 257.1475, "ARG_OF_PERICENTER": 230.4104, "MEAN_ANOMALY": 129.535, "EPHEMERIS_TYPE": 0, "CLASSIFICATION_TYPE": "U", "NORAD_CAT_ID": 31296, "ELEMENT_SET_NO": 999, "REV_AT_EPOCH": 97290, "BSTAR": 0.0059795, "MEAN_MOTION_DOT": 0.00037019, "MEAN_MOTION_DDOT": 0}, "tle": {"line1": "1 31296U 99025BPE 25342.70374767  .00037019  00000+0  59795-2 0  9999", "line2": "2 31296  99.0660 257.1475 0019812 230.4104 129.5350 14.71104773972906"}}, "geometry": {"type": "Point", "coordinates": [-91.67984866771702, -48.98357259226708]}}, {"type": "Feature", "properties": {"norad_id": 31297, "name": "FENGYUN 1C DEB", "group": "fengyun-1c-debris", "lat": -65.16242588097542, "lon": -79.99357255646984, "alt_km": 747.7096736782078, "timestamp": "2025-12-09T05:43:21.007647+00:00", "meta": {"OBJECT_NAME": "FENGYUN 1C DEB", "OBJECT_ID": "1999-025BPF", "EPOCH": "2025-12-08T15:31:09.835104", "MEAN_MOTION": 14.57049337, "ECCENTRICITY": 0.0139628, "INCLINATION": 98.9344, "RA_OF_ASC_NODE": 119.2412, "ARG_OF_PERICENTER": 135.2555, "MEAN_ANOMALY": 247.5474, "EPHEMERIS_TYPE": 0, "CLASSIFICATION_TYPE": "U", "NORAD_CAT_ID": 31297, "ELEMENT_SET_NO": 999, "REV_AT_EPOCH": 99256, "BSTAR": 0.00089434, "MEAN_MOTION_DOT": 4.542e-05, "MEAN_MOTION_DDOT": 0}, "tle": {"line1": "1 31297U 99025BPF 25342.64664161  .00004542  00000+0  89434-3 0  9992", "line2": "2 31297  98.9344 119.2412 0139628 135.2555 247.5474 14.57049337992563"}}, "geometry": {"type": "Point", "coordinates": [-79.99357255646984, -65.16242588097542]}}, {"type": "Feature", "properties": {"norad_id": 31300, "name": "FENGYUN 1C DEB", "group": "fengyun-1c-debris", "lat": -5.663790378615798, "lon": 63.30235229726449, "alt_km": 834.5106012920987, "timestamp": "2025-12-09T05:43:21.007657+00:00", "meta": {"OBJECT_NAME": "FENGYUN 1C DEB", "OBJECT_ID": "1999-025BPJ", "EPOCH": "2025-12-08T11:23:39.274368", "MEAN_MOTION": 14.15096089, "ECCENTRICITY": 0.00607302, "INCLINATION": 99.5425, "RA_OF_ASC_NODE": 61.5303, "ARG_OF_PERICENTER": 72.2513, "MEAN_ANOMALY": 354.4776, "EPHEMERIS_TYPE": 0, "CLASSIFICATION_TYPE": "U", "NORAD_CAT_ID": 31300, "ELEMENT_SET_NO": 999, "REV_AT_EPOCH": 96114, "BSTAR": 0.0019520222, "MEAN_MOTION_DOT": 3.805e-05, "MEAN_MOTION_DDOT": 0}, "tle": {"line1": "1 31300U 99025BPJ 25342.47476012  .00003805  00000+0  19520-2 0  9993", "line2": "2 31300  99.5425  61.5303 0060730  72.2513 354.4776 14.15096089961147"}}, "geometry": {"type": "Point", "coordinates": [63.30235229726449, -5.663790378615798]}}, {"type": "Feature", "properties": {"norad_id": 31302, "name": "FENGYUN 1C DEB", "group": "fengyun-1c-debris", "lat": 37.31263572407689, "lon": 17.74757634071639, "alt_km": 779.803959794921, "timestamp": "2025-12-09T05:43:21.007668+00:00", "meta": {"OBJECT_NAME": "FENGYUN 1C DEB", "OBJECT_ID": "1999-025BPL", "EPOCH": "2025-12-05T14:46:32.923776", "MEAN_MOTION": 14.27462928, "ECCENTRICITY": 0.00274625, "INCLINATION": 99.4134, "RA_OF_ASC_NODE": 21.1132, "ARG_OF_PERICENTER": 75.788, "MEAN_ANOMALY": 75.4083, "EPHEMERIS_TYPE": 0, "CLASSIFICATION_TYPE": "U", "NORAD_CAT_ID": 31302, "ELEMENT_SET_NO": 999, "REV_AT_EPOCH": 96256, "BSTAR": 0.0026425456, "MEAN_MOTION_DOT": 6.469e-05, "MEAN_MOTION_DDOT": 0}, "tle": {"line1": "1 31302U 99025BPL 25339.61565884  .00006469  00000+0  26425-2 0  9994", "line2": "2 31302  99.4134  21.1132 0027462  75.7880  75.4083 14.27462928962567"}}, "geometry": {"type": "Point", "coordinates": [17.74757634071639, 37.31263572407689]}}, {"type": "Feature", "properties": {"norad_id": 31303, "name": "FENGYUN 1C DEB", "group": "fengyun-1c-debris", "lat": -24.6627338099665, "lon": 3.5832007456853154, "alt_km": 869.5669859628397, "timestamp": "2025-12-09T05:43:21.007678+00:00", "meta": {"OBJECT_NAME": "FENGYUN 1C DEB", "OBJECT_ID": "1999-025BPM", "EPOCH": "2025-12-08T07:43:00.586848", "MEAN_MOTION": 14.11022393, "ECCENTRICITY": 0.00114034, "INCLINATION": 98.7049, "RA_OF_ASC_NODE": 358.6608, "ARG_OF_PERICENTER": 164.1703, "MEAN_ANOMALY": 195.9827, "EPHEMERIS_TYPE": 0, "CLASSIFICATION_TYPE": "U", "NORAD_CAT_ID": 31303, "ELEMENT_SET_NO": 999, "REV_AT_EPOCH": 96256, "BSTAR": 0.00020904082, "MEAN_MOTION_DOT": 3.33e-06, "MEAN_MOTION_DDOT": 0}, "tle": {"line1": "1 31303U 99025BPM 25342.32153457  .00000333  00000+0  20904-3 0  9997", "line2": "2 31303  98.7049 358.6608 0011403 164.1703 195.9827 14.11022393962561"}}, "geometry": {"type": "Point", "coordinates": [3.5832007456853154, -24.6627338099665]}}, {"type": "Feature", "properties": {"norad_id": 31311, "name": "FENGYUN 1C DEB", "group": "fengyun-1c-debris", "lat": 20.711105344805382, "lon": -112.0940496975468, "alt_km": 786.2421148397734, "timestamp": "2025-12-09T05:43:21.007688+00:00", "meta": {"OBJECT_NAME": "FENGYUN 1C DEB", "OBJECT_ID": "1999-025BPP", "EPOCH": "2025-12-08T19:27:16.552800", "MEAN_MOTION": 14.29693735, "ECCENTRICITY": 0.0018988, "INCLINATION": 98.8525, "RA_OF_ASC_NODE": 64.0932, "ARG_OF_PERICENTER": 98.0345, "MEAN_ANOMALY": 19.9423, "EPHEMERIS_TYPE": 0, "CLASSIFICATION_TYPE": "U", "NORAD_CAT_ID": 31311, "ELEMENT_SET_NO": 999, "REV_AT_EPOCH": 96165, "BSTAR": 0.0028709, "MEAN_MOTION_DOT": 7.338e-05, "MEAN_MOTION_DDOT": 0}, "tle": {"line1": "1 31311U 99025BPP 25342.81060825  .00007338  00000+0  28709-2 0  9998", "line2": "2 31311  98.8525  64.0932 0018988  98.0345  19.9423 14.29693735961659"}}, "geometry": {"type": "Point", "coordinates": [-112.0940496975468, 20.711105344805382]}}, {"type": "Feature", "properties": {"norad_id": 31312, "name": "FENGYUN 1C DEB", "group": "fengyun-1c-debris", "lat": -33.95762185497026, "lon": -24.96073363415738, "alt_km": 888.6380303304122, "timestamp": "2025-12-09T05:43:21.007699+00:00", "meta": {"OBJECT_NAME": "FENGYUN 1C DEB", "OBJECT_ID": "1999-025BPQ", "EPOCH": "2025-12-01T11:40:09.596352", "MEAN_MOTION": 14.00893121, "ECCENTRICITY": 0.00581856, "INCLINATION": 98.8574, "RA_OF_ASC_NODE": 321.4953, "ARG_OF_PERICENTER": 267.9693, "MEAN_ANOMALY": 222.3029, "EPHEMERIS_TYPE": 0, "CLASSIFICATION_TYPE": "U", "NORAD_CAT_ID": 31312, "ELEMENT_SET_NO": 999, "REV_AT_EPOCH": 94988, "BSTAR": 0.00061208287, "MEAN_MOTION_DOT": 8.85e-06, "MEAN_MOTION_DDOT": 0}, "tle": {"line1": "1 31312U 99025BPQ 25335.48622218  .00000885  00000+0  61208-3 0  9996", "line2": "2 31312  98.8574 321.4953 0058185 267.9693 222.3029 14.00893121949886"}}, "geometry": {"type": "Point", "coordinates": [-24.96073363415738, -33.95762185497026]}}]}